TDRS 12                 
1 39504U 14004A   26064.34193337 -.00000276  00000+0  00000+0 0  9995
2 39504   3.8768  17.2574 0003908 267.7803 320.2316  1.00269751 43234
ABS-2                   
1 39508U 14006A   26064.18169902 -.00000094  00000+0  00000+0 0  9992
2 39508   0.0470 273.1882 0003007  66.1121 323.9257  1.00272075 44234
ATHENA-FIDUS            
1 39509U 14006B   26064.19558707  .00000145  00000+0  00000+0 0  9995
2 39509   0.0110 164.8935 0001898 198.6220 267.6053  1.00272171 44042
TURKSAT 4A              
1 39522U 14007A   26064.19558707  .00000137  00000+0  00000+0 0  9992
2 39522   0.0671 292.7122 0004170  18.6022 323.9969  1.00271623 43924
CZ-3C DEB               
1 39600U 10057X   26062.74301735  .00000581  00000+0  24853-2 0  9994
2 39600  20.3252  10.8015 7235209 330.2183   3.3961  2.25321652100862
EXPRESS-AT1             
1 39612U 14010A   26064.23773718  .00000070  00000+0  00000+0 0  9998
2 39612   0.0266 262.2811 0000606   6.1591  36.0967  1.00271738 43774
EXPRESS-AT2             
1 39613U 14010B   26064.25437725  .00000000  00000+0  00000+0 0  9999
2 39613   0.0212 155.3284 0001008 112.9409 126.1656  1.00270101 43457
BREEZE-M R/B            
1 39614U 14010C   26062.12030287 -.00000178  00000+0  00000+0 0  9993
2 39614  10.6964  60.1701 0671899  49.6025 316.2010  0.90579875 39546
AMAZONAS 4A             
1 39616U 14011A   26064.06942973 -.00000261  00000+0  00000+0 0  9998
2 39616   0.0598 155.9164 0002628 163.6141 154.2655  1.00271036 43667
ASTRA 5B                
1 39617U 14011B   26064.23132381  .00000128  00000+0  00000+0 0  9993
2 39617   0.0892 299.5362 0004096  27.4419 302.7363  1.00271429 43624
IRNSS-1B                
1 39635U 14017A   26062.54882074  .00000102  00000+0  00000+0 0  9994
2 39635  29.1127 242.2056 0021171 179.2461 352.3815  1.00270890 43734
CTS DEB [ARRAY COVER]   
1 39688U 76004E   26062.49112667 -.00000005  00000+0  00000+0 0  9997
2 39688   3.5042 267.9697 0033319 166.8396 141.5060  1.00304143 41710
CTS DEB [ARRAY COVER]   
1 39689U 76004F   26063.52214175 -.00000306  00000+0  00000+0 0  9994
2 39689   3.5348 268.7127 0164253  64.2718 297.0451  1.00280454 65847
LUCH-5V                 
1 39727U 14023A   26064.03146958 -.00000276  00000+0  00000+0 0  9996
2 39727   4.8765  70.7693 0003024 280.3184 277.7436  1.00271609 43310
KAZSAT-3                
1 39728U 14023B   26064.23817051  .00000052  00000+0  00000+0 0  9999
2 39728   0.0333  59.7977 0000573   3.3655 244.0416  1.00272383 41418
BREEZE-M R/B            
1 39729U 14023C   26064.04011347 -.00000164  00000+0  00000+0 0  9998
2 39729   9.8611  54.0306 0645625 198.6291 159.0325  0.92543689 40015
EUTELSAT 3B             
1 39773U 14030A   26064.12058863  .00000011  00000+0  00000+0 0  9998
2 39773   0.0646 338.0554 0001016 284.2188 307.1006  1.00274281 43027
