[{"OBJECT_NAME":"TDRS 12","OBJECT_ID":"2014-004A","EPOCH":"2026-03-05T08:12:23.043168","MEAN_MOTION":1.00269751,"ECCENTRICITY":0.00039084,"INCLINATION":3.8768,"RA_OF_ASC_NODE":17.2574,"ARG_OF_PERICENTER":267.7803,"MEAN_ANOMALY":320.2316,"EPHEMERIS_TYPE":0,"CLASSIFICATION_TYPE":"U","NORAD_CAT_ID":39504,"ELEMENT_SET_NO":999,"REV_AT_EPOCH":4323,"BSTAR":0,"MEAN_MOTION_DOT":-2.76e-6,"MEAN_MOTION_DDOT":0},{"OBJECT_NAME":"ABS-2","OBJECT_ID":"2014-006A","EPOCH":"2026-03-05T04:21:38.795328","MEAN_MOTION":1.00272075,"ECCENTRICITY":0.00030075,"INCLINATION":0.047,"RA_OF_ASC_NODE":273.1882,"ARG_OF_PERICENTER":66.1121,"MEAN_ANOMALY":323.9257,"EPHEMERIS_TYPE":0,"CLASSIFICATION_TYPE":"U","NORAD_CAT_ID":39508,"ELEMENT_SET_NO":999,"REV_AT_EPOCH":4423,"BSTAR":0,"MEAN_MOTION_DOT":-9.4e-7,"MEAN_MOTION_DDOT":0},{"OBJECT_NAME":"ATHENA-FIDUS","OBJECT_ID":"2014-006B","EPOCH":"2026-03-05T04:41:38.722848","MEAN_MOTION":1.00272171,"ECCENTRICITY":0.00018982,"INCLINATION":0.011,"RA_OF_ASC_NODE":164.8935,"ARG_OF_PERICENTER":198.622,"MEAN_ANOMALY":267.6053,"EPHEMERIS_TYPE":0,"CLASSIFICATION_TYPE":"U","NORAD_CAT_ID":39509,"ELEMENT_SET_NO":999,"REV_AT_EPOCH":4404,"BSTAR":0,"MEAN_MOTION_DOT":1.45e-6,"MEAN_MOTION_DDOT":0},{"OBJECT_NAME":"TURKSAT 4A","OBJECT_ID":"2014-007A","EPOCH":"2026-03-05T04:41:38.722848","MEAN_MOTION":1.00271623,"ECCENTRICITY":0.00041706,"INCLINATION":0.0671,"RA_OF_ASC_NODE":292.7122,"ARG_OF_PERICENTER":18.6022,"MEAN_ANOMALY":323.9969,"EPHEMERIS_TYPE":0,"CLASSIFICATION_TYPE":"U","NORAD_CAT_ID":39522,"ELEMENT_SET_NO":999,"REV_AT_EPOCH":4392,"BSTAR":0,"MEAN_MOTION_DOT":1.37e-6,"MEAN_MOTION_DDOT":0},{"OBJECT_NAME":"CZ-3C DEB","OBJECT_ID":"2010-057X","EPOCH":"2026-03-03T17:49:56.699040","MEAN_MOTION":2.25321652,"ECCENTRICITY":0.7235209,"INCLINATION":20.3252,"RA_OF_ASC_NODE":10.8015,"ARG_OF_PERICENTER":330.2183,"MEAN_ANOMALY":3.3961,"EPHEMERIS_TYPE":0,"CLASSIFICATION_TYPE":"U","NORAD_CAT_ID":39600,"ELEMENT_SET_NO":999,"REV_AT_EPOCH":10086,"BSTAR":0.0024853489,"MEAN_MOTION_DOT":5.81e-6,"MEAN_MOTION_DDOT":0},{"OBJECT_NAME":"EXPRESS-AT1","OBJECT_ID":"2014-010A","EPOCH":"2026-03-05T05:42:20.492352","MEAN_MOTION":1.00271738,"ECCENTRICITY":6.06e-5,"INCLINATION":0.0266,"RA_OF_ASC_NODE":262.2811,"ARG_OF_PERICENTER":6.1591,"MEAN_ANOMALY":36.0967,"EPHEMERIS_TYPE":0,"CLASSIFICATION_TYPE":"U","NORAD_CAT_ID":39612,"ELEMENT_SET_NO":999,"REV_AT_EPOCH":4377,"BSTAR":0,"MEAN_MOTION_DOT":7.0e-7,"MEAN_MOTION_DDOT":0},{"OBJECT_NAME":"EXPRESS-AT2","OBJECT_ID":"2014-010B","EPOCH":"2026-03-05T06:06:18.194400","MEAN_MOTION":1.00270101,"ECCENTRICITY":0.00010084,"INCLINATION":0.0212,"RA_OF_ASC_NODE":155.3284,"ARG_OF_PERICENTER":112.9409,"MEAN_ANOMALY":126.1656,"EPHEMERIS_TYPE":0,"CLASSIFICATION_TYPE":"U","NORAD_CAT_ID":39613,"ELEMENT_SET_NO":999,"REV_AT_EPOCH":4345,"BSTAR":0,"MEAN_MOTION_DOT":0,"MEAN_MOTION_DDOT":0},{"OBJECT_NAME":"BREEZE-M R/B","OBJECT_ID":"2014-010C","EPOCH":"2026-03-03T02:53:14.167968","MEAN_MOTION":0.90579875,"ECCENTRICITY":0.0671899,"INCLINATION":10.6964,"RA_OF_ASC_NODE":60.1701,"ARG_OF_PERICENTER":49.6025,"MEAN_ANOMALY":316.201,"EPHEMERIS_TYPE":0,"CLASSIFICATION_TYPE":"U","NORAD_CAT_ID":39614,"ELEMENT_SET_NO":999,"REV_AT_EPOCH":3954,"BSTAR":0,"MEAN_MOTION_DOT":-1.78e-6,"MEAN_MOTION_DDOT":0},{"OBJECT_NAME":"AMAZONAS 4A","OBJECT_ID":"2014-011A","EPOCH":"2026-03-05T01:39:58.728672","MEAN_MOTION":1.00271036,"ECCENTRICITY":0.00026288,"INCLINATION":0.0598,"RA_OF_ASC_NODE":155.9164,"ARG_OF_PERICENTER":163.6141,"MEAN_ANOMALY":154.2655,"EPHEMERIS_TYPE":0,"CLASSIFICATION_TYPE":"U","NORAD_CAT_ID":39616,"ELEMENT_SET_NO":999,"REV_AT_EPOCH":4366,"BSTAR":0,"MEAN_MOTION_DOT":-2.61e-6,"MEAN_MOTION_DDOT":0},{"OBJECT_NAME":"ASTRA 5B","OBJECT_ID":"2014-011B","EPOCH":"2026-03-05T05:33:06.377184","MEAN_MOTION":1.00271429,"ECCENTRICITY":0.0004096,"INCLINATION":0.0892,"RA_OF_ASC_NODE":299.5362,"ARG_OF_PERICENTER":27.4419,"MEAN_ANOMALY":302.7363,"EPHEMERIS_TYPE":0,"CLASSIFICATION_TYPE":"U","NORAD_CAT_ID":39617,"ELEMENT_SET_NO":999,"REV_AT_EPOCH":4362,"BSTAR":0,"MEAN_MOTION_DOT":1.28e-6,"MEAN_MOTION_DDOT":0},{"OBJECT_NAME":"IRNSS-1B","OBJECT_ID":"2014-017A","EPOCH":"2026-03-03T13:10:18.111936","MEAN_MOTION":1.0027089,"ECCENTRICITY":0.0021171,"INCLINATION":29.1127,"RA_OF_ASC_NODE":242.2056,"ARG_OF_PERICENTER":179.2461,"MEAN_ANOMALY":352.3815,"EPHEMERIS_TYPE":0,"CLASSIFICATION_TYPE":"U","NORAD_CAT_ID":39635,"ELEMENT_SET_NO":999,"REV_AT_EPOCH":4373,"BSTAR":0,"MEAN_MOTION_DOT":1.02e-6,"MEAN_MOTION_DDOT":0},{"OBJECT_NAME":"CTS DEB [ARRAY COVER]","OBJECT_ID":"1976-004E","EPOCH":"2026-03-03T11:47:13.344288","MEAN_MOTION":1.00304143,"ECCENTRICITY":0.0033319,"INCLINATION":3.5042,"RA_OF_ASC_NODE":267.9697,"ARG_OF_PERICENTER":166.8396,"MEAN_ANOMALY":141.506,"EPHEMERIS_TYPE":0,"CLASSIFICATION_TYPE":"U","NORAD_CAT_ID":39688,"ELEMENT_SET_NO":999,"REV_AT_EPOCH":4171,"BSTAR":0,"MEAN_MOTION_DOT":-5.0e-8,"MEAN_MOTION_DDOT":0},{"OBJECT_NAME":"CTS DEB [ARRAY COVER]","OBJECT_ID":"1976-004F","EPOCH":"2026-03-04T12:31:53.047200","MEAN_MOTION":1.00280454,"ECCENTRICITY":0.01642531,"INCLINATION":3.5348,"RA_OF_ASC_NODE":268.7127,"ARG_OF_PERICENTER":64.2718,"MEAN_ANOMALY":297.0451,"EPHEMERIS_TYPE":0,"CLASSIFICATION_TYPE":"U","NORAD_CAT_ID":39689,"ELEMENT_SET_NO":999,"REV_AT_EPOCH":6584,"BSTAR":0,"MEAN_MOTION_DOT":-3.06e-6,"MEAN_MOTION_DDOT":0},{"OBJECT_NAME":"LUCH-5V","OBJECT_ID":"2014-023A","EPOCH":"2026-03-05T00:45:18.971712","MEAN_MOTION":1.00271609,"ECCENTRICITY":0.00030245,"INCLINATION":4.8765,"RA_OF_ASC_NODE":70.7693,"ARG_OF_PERICENTER":280.3184,"MEAN_ANOMALY":277.7436,"EPHEMERIS_TYPE":0,"CLASSIFICATION_TYPE":"U","NORAD_CAT_ID":39727,"ELEMENT_SET_NO":999,"REV_AT_EPOCH":4331,"BSTAR":0,"MEAN_MOTION_DOT":-2.76e-6,"MEAN_MOTION_DDOT":0},{"OBJECT_NAME":"KAZSAT-3","OBJECT_ID":"2014-023B","EPOCH":"2026-03-05T05:42:57.932064","MEAN_MOTION":1.00272383,"ECCENTRICITY":5.734e-5,"INCLINATION":0.0333,"RA_OF_ASC_NODE":59.7977,"ARG_OF_PERICENTER":3.3655,"MEAN_ANOMALY":244.0416,"EPHEMERIS_TYPE":0,"CLASSIFICATION_TYPE":"U","NORAD_CAT_ID":39728,"ELEMENT_SET_NO":999,"REV_AT_EPOCH":4141,"BSTAR":0,"MEAN_MOTION_DOT":5.2e-7,"MEAN_MOTION_DDOT":0},{"OBJECT_NAME":"BREEZE-M R/B","OBJECT_ID":"2014-023C","EPOCH":"2026-03-05T00:57:45.803808","MEAN_MOTION":0.92543689,"ECCENTRICITY":0.06456259,"INCLINATION":9.8611,"RA_OF_ASC_NODE":54.0306,"ARG_OF_PERICENTER":198.6291,"MEAN_ANOMALY":159.0325,"EPHEMERIS_TYPE":0,"CLASSIFICATION_TYPE":"U","NORAD_CAT_ID":39729,"ELEMENT_SET_NO":999,"REV_AT_EPOCH":4001,"BSTAR":0,"MEAN_MOTION_DOT":-1.64e-6,"MEAN_MOTION_DDOT":0},{"OBJECT_NAME":"EUTELSAT 3B","OBJECT_ID":"2014-030A","EPOCH":"2026-03-05T02:53:38.857632","MEAN_MOTION":1.00274281,"ECCENTRICITY":0.00010166,"INCLINATION":0.0646,"RA_OF_ASC_NODE":338.0554,"ARG_OF_PERICENTER":284.2188,"MEAN_ANOMALY":307.1006,"EPHEMERIS_TYPE":0,"CLASSIFICATION_TYPE":"U","NORAD_CAT_ID":39773,"ELEMENT_SET_NO":999,"REV_AT_EPOCH":4302,"BSTAR":0,"MEAN_MOTION_DOT":1.1e-7,"MEAN_MOTION_DDOT":0}]
